OBJECT_NAME,OBJECT_ID,EPOCH,MEAN_MOTION,ECCENTRICITY,INCLINATION,RA_OF_ASC_NODE,ARG_OF_PERICENTER,MEAN_ANOMALY,EPHEMERIS_TYPE,CLASSIFICATION_TYPE,NORAD_CAT_ID,ELEMENT_SET_NO,REV_AT_EPOCH,BSTAR,MEAN_MOTION_DOT,MEAN_MOTION_DDOT
INTELSAT 21 (IS-21),2012-045A,2026-06-14T04:33:38.889216,1.00271183,.00012619,0.0164,320.5840,138.6000,173.7258,0,U,38749,999,5049,0,-.276E-5,0
INTELSAT 23 (IS-23),2012-057A,2026-06-14T04:33:38.889216,1.00274700,.00003726,0.0146,345.6246,89.3722,202.9030,0,U,38867,999,4992,0,-.276E-5,0
FM-6,2013-058A,2026-06-13T16:01:19.780320,1.00266318,.00015567,0.0302,40.0804,125.3602,220.5258,0,U,39360,999,4603,0,0,0
INTELSAT 30 (IS-30),2014-062A,2026-06-13T22:57:59.629824,1.00271302,.00012948,0.0271,49.1684,328.5052,134.0377,0,U,40271,999,676,0,-.141E-5,0
DIRECTV 14,2014-078B,2026-06-14T03:20:38.838624,1.00269987,.00003555,0.0112,14.8804,254.9405,303.5424,0,U,40333,999,4201,0,-.116E-5,0
DIRECTV 15,2015-026A,2026-06-13T22:55:52.334112,1.00270807,.00002306,0.0157,25.4064,246.7780,231.1742,0,U,40663,999,4043,0,-.93E-6,0
SKY MEXICO-1,2015-026B,2026-06-14T04:10:35.532768,1.00270894,.00019419,0.0169,341.8207,121.7928,142.7169,0,U,40664,999,4042,0,-.226E-5,0
INTELSAT 34 (IS-34),2015-039A,2026-06-14T04:33:38.889216,1.00274829,.00009423,0.0101,346.0378,2.5626,286.8281,0,U,40874,999,3960,0,-.277E-5,0
INTELSAT 31 (IS-31),2016-035A,2026-06-14T04:05:58.475616,1.00268287,.00012059,0.0179,271.7333,326.1691,351.0186,0,U,41581,999,3665,0,-.142E-5,0
INTELSAT 36 (IS-36),2016-053A,2026-06-14T04:56:57.688800,1.00270032,.00021247,0.0105,359.4994,329.3715,76.3746,0,U,41747,999,3592,0,-.15E-6,0
INTELSAT 32E (IS-32E),2017-007B,2026-06-14T04:20:49.339104,1.00269960,.0000745,0.0050,41.9839,262.8981,339.6327,0,U,41945,999,3419,0,-.26E-5,0
INTELSAT 35E (IS-35E),2017-041A,2026-06-14T04:23:19.098816,1.00268394,.0001549,0.0255,6.1220,74.2291,213.4753,0,U,42818,999,3278,0,0,0
INTELSAT 37E (IS-37E),2017-059A,2026-06-14T02:45:23.020128,1.00272613,.00023415,0.0200,61.2578,39.6516,184.8699,0,U,42950,999,3203,0,-.131E-5,0
AZERSPACE 2 (IS-38),2018-074A,2026-06-13T21:19:59.818656,1.00271406,.00012659,0.0111,7.5192,90.2404,169.5525,0,U,43632,999,2841,0,.146E-5,0
HORIZONS-3E,2018-074B,2026-06-13T19:05:18.659904,1.00272721,.00008959,0.0185,161.8508,113.8020,81.7793,0,U,43633,999,2830,0,-.2E-6,0
AT&T T-16,2019-034A,2026-06-13T21:13:39.826272,1.00269989,.0000887,0.0190,56.6301,237.6114,185.5149,0,U,44333,999,2560,0,-.105E-5,0
INTELSAT 39 (IS-39),2019-049B,2026-06-13T11:44:09.700224,1.00270508,.00008762,0.0017,349.3933,319.9486,190.4512,0,U,44476,999,2509,0,.45E-6,0
GALAXY 30 (G-30),2020-056C,2026-06-14T03:36:38.532672,1.00270364,.0002064,0.0179,5.4372,83.1864,102.9907,0,U,46114,999,2126,0,.46E-6,0
GALAXY 33 (G-33),2022-128A,2026-06-14T06:20:15.559008,1.00270975,.00015978,0.0124,340.8013,105.2694,138.5657,0,U,54026,999,1371,0,.87E-6,0
GALAXY 34 (G-34),2022-128B,2026-06-13T17:40:21.665568,1.00275311,.00015307,0.0115,29.5169,67.3543,301.2703,0,U,54027,999,1387,0,.69E-6,0
GALAXY 31 (G-31),2022-153A,2026-06-14T03:36:38.532672,1.00270193,.00009729,0.0195,13.1462,62.8336,119.6246,0,U,54243,999,710,0,0,0
GALAXY 32 (G-32),2022-153B,2026-06-13T14:25:37.455744,1.00271032,.0001981,0.0146,26.6441,6.1350,354.5447,0,U,54244,999,1310,0,-.163E-5,0
GALAXY 35 (G-35),2022-170A,2026-06-14T04:06:35.916192,1.00269341,.00017707,0.0195,359.4874,86.5785,144.9519,0,U,54741,999,1286,0,0,0
GALAXY 36 (G-36),2022-170B,2026-06-14T04:07:43.309056,1.00271107,.0002475,0.0420,125.7235,317.7191,151.9705,0,U,54742,999,1274,0,-.176E-5,0
GALAXY 37 (G-37),2023-112A,2026-06-14T03:36:38.532672,1.00271004,.00017208,0.0187,51.6477,28.4086,109.5568,0,U,57493,999,1051,0,.57E-6,0
